[{"OBJECT_NAME":"STARLINK-1417","OBJECT_ID":"2020-035AN","EPOCH":"2026-03-09T06:25:21.276768","MEAN_MOTION":15.12514223,"ECCENTRICITY":0.00021286,"INCLINATION":53.0515,"RA_OF_ASC_NODE":56.2233,"ARG_OF_PERICENTER":233.0338,"MEAN_ANOMALY":127.0459,"EPHEMERIS_TYPE":0,"CLASSIFICATION_TYPE":"U","NORAD_CAT_ID":45693,"ELEMENT_SET_NO":999,"REV_AT_EPOCH":31883,"BSTAR":0.0019843855,"MEAN_MOTION_DOT":0.00034834,"MEAN_MOTION_DDOT":0},{"OBJECT_NAME":"STARLINK-5407","OBJECT_ID":"2022-177AQ","EPOCH":"2026-03-09T22:00:01.999584","MEAN_MOTION":15.11184678,"ECCENTRICITY":0.00016124,"INCLINATION":42.9996,"RA_OF_ASC_NODE":118.9712,"ARG_OF_PERICENTER":237.2667,"MEAN_ANOMALY":16.9578,"EPHEMERIS_TYPE":0,"CLASSIFICATION_TYPE":"U","NORAD_CAT_ID":54858,"ELEMENT_SET_NO":999,"REV_AT_EPOCH":557,"BSTAR":0.0032943061,"MEAN_MOTION_DOT":0.00056497,"MEAN_MOTION_DDOT":0}]
